{
  "norad_id": 60115,
  "name": "STARLINK-11112 [DTC]",
  "history": [
    {
      "epoch": "2026-03-28T19:26:28.140288",
      "apogee_km": 360.77590650311777,
      "perigee_km": 358.49611362743144,
      "latitude_deg": 51.709818564326675,
      "longitude_deg": -90.73539967997931,
      "semi_major_axis_km": 6737.773010065274,
      "eccentricity": 0.00016918,
      "inclination_deg": 53.1572,
      "raan_deg": 127.2085,
      "arg_perigee_deg": 60.0431,
      "mean_anomaly_deg": 300.0754,
      "mean_motion_rev_day": 15.6974171
    }
  ]
}